[
   {
      "name": "STARLINK-1284",
      "line1": "1 45390U 20019AG  21092.90356387  .00000697  00000-0  65702-4 0  9994",
      "line2": "2 45390  53.0573 315.1452 0001834  76.6326 283.4867 15.06403443 58431",
      "bstar": 6.5702,
      "inc": 53.0573,
      "raan": 315.1452,
      "ecc": 0.0001834,
      "argp": 76.6326,
      "nu": 283.4867,
      "mmo": 15.06403443,
      "a": 6925.33801
   },
   {
      "name": "STARLINK-1289",
      "line1": "1 45391U 20019AH  21092.91831137  .00000642  00000-0  62034-4 0  9992",
      "line2": "2 45391  53.0571 315.0757 0001545  77.5252 282.5910 15.06388006 58160",
      "bstar": 6.2034,
      "inc": 53.0571,
      "raan": 315.0757,
      "ecc": 0.0001545,
      "argp": 77.5252,
      "nu": 282.591,
      "mmo": 15.06388006,
      "a": 6925.38532
   },
   {
      "name": "STARLINK-1290",
      "line1": "1 45392U 20019AJ  21092.86476397  .00002533  00000-0  18774-3 0  9992",
      "line2": "2 45392  52.9940 314.5517 0002929  84.0736 276.0586 15.06634341 58156",
      "bstar": 18.774,
      "inc": 52.994,
      "raan": 314.5517,
      "ecc": 0.0002929,
      "argp": 84.0736,
      "nu": 276.0586,
      "mmo": 15.06634341,
      "a": 6924.63043
   },
   {
      "name": "STARLINK-1291",
      "line1": "1 45393U 20019AK  21092.88144672 -.00000691  00000-0 -27499-4 0  9993",
      "line2": "2 45393  53.0563 315.2467 0001729  82.2703 277.8482 15.06393670 58198",
      "bstar": -2.7499,
      "inc": 53.0563,
      "raan": 315.2467,
      "ecc": 0.0001729,
      "argp": 82.2703,
      "nu": 277.8482,
      "mmo": 15.0639367,
      "a": 6925.36796
   },
   {
      "name": "STARLINK-1292",
      "line1": "1 45394U 20019AL  21092.91094159  .00000790  00000-0  71928-4 0  9996",
      "line2": "2 45394  53.0569 315.1054 0001636  97.3303 262.7872 15.06394661 58171",
      "bstar": 7.1928,
      "inc": 53.0569,
      "raan": 315.1054,
      "ecc": 0.0001636,
      "argp": 97.3303,
      "nu": 262.7872,
      "mmo": 15.06394661,
      "a": 6925.36492
   },
   {
      "name": "STARLINK-1297",
      "line1": "1 45395U 20019AM  21092.87407827 -.00000921  00000-0 -42935-4 0  9996",
      "line2": "2 45395  53.0577 315.2776 0002075  89.7164 270.4063 15.06392123 57618",
      "bstar": -4.2935,
      "inc": 53.0577,
      "raan": 315.2776,
      "ecc": 0.0002075,
      "argp": 89.7164,
      "nu": 270.4063,
      "mmo": 15.06392123,
      "a": 6925.3727
   },
   {
      "name": "STARLINK-1303",
      "line1": "1 45396U 20019AN  21092.92199543 -.00000901  00000-0 -41614-4 0  9997",
      "line2": "2 45396  53.0563 315.0659 0001741  82.4873 277.6313 15.06391034 58155",
      "bstar": -4.1614,
      "inc": 53.0563,
      "raan": 315.0659,
      "ecc": 0.0001741,
      "argp": 82.4873,
      "nu": 277.6313,
      "mmo": 15.06391034,
      "a": 6925.37604
   },
   {
      "name": "STARLINK-1307",
      "line1": "1 45397U 20019AP  21092.86670879  .00000673  00000-0  64114-4 0  9991",
      "line2": "2 45397  53.0565 315.3105 0001920  91.6343 268.4866 15.06390940 58257",
      "bstar": 6.4114,
      "inc": 53.0565,
      "raan": 315.3105,
      "ecc": 0.000192,
      "argp": 91.6343,
      "nu": 268.4866,
      "mmo": 15.0639094,
      "a": 6925.37633
   },
   {
      "name": "STARLINK-1312",
      "line1": "1 45398U 20019AQ  21092.85933583  .00001101  00000-0  92803-4 0  9998",
      "line2": "2 45398  53.0560 315.3460 0001836  89.1057 271.0142 15.06393293 58180",
      "bstar": 9.2803,
      "inc": 53.056,
      "raan": 315.346,
      "ecc": 0.0001836,
      "argp": 89.1057,
      "nu": 271.0142,
      "mmo": 15.06393293,
      "a": 6925.36911
   },
   {
      "name": "STARLINK-1255",
      "line1": "1 45399U 20019AR  21092.83446112  .00000882  00000-0  78162-4 0  9991",
      "line2": "2 45399  53.0581 305.4495 0002220  92.1682 267.9561 15.06387250 58374",
      "bstar": 7.8162,
      "inc": 53.0581,
      "raan": 305.4495,
      "ecc": 0.000222,
      "argp": 92.1682,
      "nu": 267.9561,
      "mmo": 15.0638725,
      "a": 6925.38764
   },
   {
      "name": "STARLINK-1213",
      "line1": "1 45400U 20019AS  21092.84918861  .00000882  00000-0  78146-4 0  9992",
      "line2": "2 45400  53.0569 305.3768 0002370  87.3292 272.7968 15.06403867 58305",
      "bstar": 7.8146,
      "inc": 53.0569,
      "raan": 305.3768,
      "ecc": 0.000237,
      "argp": 87.3292,
      "nu": 272.7968,
      "mmo": 15.06403867,
      "a": 6925.33671
   },
   {
      "name": "STARLINK-1256",
      "line1": "1 45401U 20019AT  21092.84551679  .00000575  00000-0  57549-4 0  9996",
      "line2": "2 45401  53.0565 305.3939 0001992  92.3402 267.7815 15.06386702 58370",
      "bstar": 5.7549,
      "inc": 53.0565,
      "raan": 305.3939,
      "ecc": 0.0001992,
      "argp": 92.3402,
      "nu": 267.7815,
      "mmo": 15.06386702,
      "a": 6925.38932
   },
   {
      "name": "STARLINK-1257",
      "line1": "1 45402U 20019AU  21092.84182755 -.00001187  00000-0 -60805-4 0  9993",
      "line2": "2 45402  53.0579 305.4140 0002223  86.0140 274.1103 15.06394928 58380",
      "bstar": -6.0805,
      "inc": 53.0579,
      "raan": 305.414,
      "ecc": 0.0002223,
      "argp": 86.014,
      "nu": 274.1103,
      "mmo": 15.06394928,
      "a": 6925.3641
   },
   {
      "name": "STARLINK-1259",
      "line1": "1 45403U 20019AV  21092.85656864 -.00000948  00000-0 -44732-4 0  9997",
      "line2": "2 45403  53.0588 305.3513 0002474  86.2491 273.8781 15.06391751 58371",
      "bstar": -4.4732,
      "inc": 53.0588,
      "raan": 305.3513,
      "ecc": 0.0002474,
      "argp": 86.2491,
      "nu": 273.8781,
      "mmo": 15.06391751,
      "a": 6925.37384
   },
   {
      "name": "STARLINK-1260",
      "line1": "1 45404U 20019AW  21092.86762473  .00001580  00000-0  12493-3 0  9992",
      "line2": "2 45404  53.0578 305.2996 0002291  87.7085 272.4167 15.06403338 58285",
      "bstar": 12.493,
      "inc": 53.0578,
      "raan": 305.2996,
      "ecc": 0.0002291,
      "argp": 87.7085,
      "nu": 272.4167,
      "mmo": 15.06403338,
      "a": 6925.33833
   },
   {
      "name": "STARLINK-1263",
      "line1": "1 45405U 20019AX  21092.85289280  .00000908  00000-0  79889-4 0  9998",
      "line2": "2 45405  53.0588 305.3637 0002297  82.9788 277.1462 15.06389282 58284",
      "bstar": 7.9889,
      "inc": 53.0588,
      "raan": 305.3637,
      "ecc": 0.0002297,
      "argp": 82.9788,
      "nu": 277.1462,
      "mmo": 15.06389282,
      "a": 6925.38141
   },
   {
      "name": "STARLINK-1265",
      "line1": "1 45406U 20019AY  21092.86025534 -.00001284  00000-0 -67342-4 0  9991",
      "line2": "2 45406  53.0584 305.3341 0002122  84.6298 275.4933 15.06391251 58288",
      "bstar": -6.7342,
      "inc": 53.0584,
      "raan": 305.3341,
      "ecc": 0.0002122,
      "argp": 84.6298,
      "nu": 275.4933,
      "mmo": 15.06391251,
      "a": 6925.37537
   },
   {
      "name": "STARLINK-1275",
      "line1": "1 45407U 20019AZ  21092.87499522  .00000869  00000-0  77280-4 0  9993",
      "line2": "2 45407  53.0573 305.2651 0003139  97.4624 262.6721 15.06404929 58284",
      "bstar": 7.728,
      "inc": 53.0573,
      "raan": 305.2651,
      "ecc": 0.0003139,
      "argp": 97.4624,
      "nu": 262.6721,
      "mmo": 15.06404929,
      "a": 6925.33345
   },
   {
      "name": "STARLINK-1278",
      "line1": "1 45408U 20019BA  21092.95331260  .00001215  00000-0  10050-3 0  9994",
      "line2": "2 45408  53.0581 334.9164 0002083  79.6419 280.4805 15.06397484 57886",
      "bstar": 10.05,
      "inc": 53.0581,
      "raan": 334.9164,
      "ecc": 0.0002083,
      "argp": 79.6419,
      "nu": 280.4805,
      "mmo": 15.06397484,
      "a": 6925.35627
   },
   {
      "name": "STARLINK-1282",
      "line1": "1 45409U 20019BB  21092.88237798  .00000756  00000-0  69702-4 0  9996",
      "line2": "2 45409  53.0574 305.2305 0002313  88.4551 271.6703 15.06393877 58295",
      "bstar": 6.9702,
      "inc": 53.0574,
      "raan": 305.2305,
      "ecc": 0.0002313,
      "argp": 88.4551,
      "nu": 271.6703,
      "mmo": 15.06393877,
      "a": 6925.36732
   },
   {
      "name": "STARLINK-1285",
      "line1": "1 45410U 20019BC  21092.83089063  .00000060  00000-0  23318-4 0  9994",
      "line2": "2 45410  53.0005 305.4646 0001832  91.4843 268.6355 15.05583593 58271",
      "bstar": 2.3318,
      "inc": 53.0005,
      "raan": 305.4646,
      "ecc": 0.0001832,
      "argp": 91.4843,
      "nu": 268.6355,
      "mmo": 15.05583593,
      "a": 6927.85186
   },
   {
      "name": "STARLINK-1293",
      "line1": "1 45411U 20019BD  21092.83076183  .00000385  00000-0  44748-4 0  9994",
      "line2": "2 45411  53.0584 305.4646 0002356  86.7729 273.3529 15.06400211 58302",
      "bstar": 4.4748,
      "inc": 53.0584,
      "raan": 305.4646,
      "ecc": 0.0002356,
      "argp": 86.7729,
      "nu": 273.3529,
      "mmo": 15.06400211,
      "a": 6925.34791
   },
   {
      "name": "STARLINK-1296",
      "line1": "1 45412U 20019BE  21092.86394978 -.00001709  00000-0 -95896-4 0  9996",
      "line2": "2 45412  53.0576 305.3133 0002113  94.9681 265.1549 15.06386657 58288",
      "bstar": -9.5896,
      "inc": 53.0576,
      "raan": 305.3133,
      "ecc": 0.0002113,
      "argp": 94.9681,
      "nu": 265.1549,
      "mmo": 15.06386657,
      "a": 6925.38945
   },
   {
      "name": "STARLINK-1298",
      "line1": "1 45413U 20019BF  21092.89343044 -.00001090  00000-0 -54296-4 0  9990",
      "line2": "2 45413  53.0578 305.1805 0002576  89.4039 270.7245 15.06393451 58380",
      "bstar": -5.4296,
      "inc": 53.0578,
      "raan": 305.1805,
      "ecc": 0.0002576,
      "argp": 89.4039,
      "nu": 270.7245,
      "mmo": 15.06393451,
      "a": 6925.36863
   }
]